{"type": "FeatureCollection", "features": [ {"type": "Feature", "properties": {"norad_id": 41335, "name": "SENTINEL-3A", "group": "resource", "lat": 21.143683597147692, "lon": -123.32753770176025, "alt_km": 802.264940553523, "timestamp": "2025-12-14T07:33:19.135261+00:00", "meta": {"OBJECT_NAME": "SENTINEL-3A", "OBJECT_ID": "2016-011A", "EPOCH": "2025-12-13T15:40:00.598944", "MEAN_MOTION": 14.26731238, "ECCENTRICITY": 9.466e-05, "INCLINATION": 98.6315, "RA_OF_ASC_NODE": 52.6519, "ARG_OF_PERICENTER": 91.1982, "MEAN_ANOMALY": 268.9307, "EPHEMERIS_TYPE": 0, "CLASSIFICATION_TYPE": "U", "NORAD_CAT_ID": 41335, "ELEMENT_SET_NO": 999, "REV_AT_EPOCH": 51160, "BSTAR": 0.00012073903, "MEAN_MOTION_DOT": 2.48e-06, "MEAN_MOTION_DDOT": 0}, "tle": {"line1": "1 41335U 16011A   25347.65278471  .00000248  00000+0  12074-3 0  9996", "line2": "2 41335  98.6315  52.6519 0000946  91.1982 268.9307 14.26731238511602"}}, "geometry": {"type": "Point", "coordinates": [-123.32753770176025, 21.143683597147692]}}, {"type": "Feature", "properties": {"norad_id": 41556, "name": "ZIYUAN 3-2 (ZY 3-2)", "group": "resource", "lat": 81.8552852661305, "lon": -2.8640124319647278, "alt_km": 501.713494812072, "timestamp": "2025-12-14T07:33:19.135271+00:00", "meta": {"OBJECT_NAME": "ZIYUAN 3-2 (ZY 3-2)", "OBJECT_ID": "2016-033A", "EPOCH": "2025-12-13T16:58:11.774208", "MEAN_MOTION": 15.21522618, "ECCENTRICITY": 0.00125822, "INCLINATION": 97.4043, "RA_OF_ASC_NODE": 61.8584, "ARG_OF_PERICENTER": 245.3621, "MEAN_ANOMALY": 114.6305, "EPHEMERIS_TYPE": 0, "CLASSIFICATION_TYPE": "U", "NORAD_CAT_ID": 41556, "ELEMENT_SET_NO": 999, "REV_AT_EPOCH": 52978, "BSTAR": 0.00040663339, "MEAN_MOTION_DOT": 9.109e-05, "MEAN_MOTION_DDOT": 0}, "tle": {"line1": "1 41556U 16033A   25347.70708072  .00009109  00000+0  40663-3 0  9996", "line2": "2 41556  97.4043  61.8584 0012582 245.3621 114.6305 15.21522618529787"}}, "geometry": {"type": "Point", "coordinates": [-2.8640124319647278, 81.8552852661305]}}, {"type": "Feature", "properties": {"norad_id": 41599, "name": "CARTOSAT-2C", "group": "resource", "lat": 17.748910956062268, "lon": 43.14046963411323, "alt_km": 502.82601225957023, "timestamp": "2025-12-14T07:33:19.135282+00:00", "meta": {"OBJECT_NAME": "CARTOSAT-2C", "OBJECT_ID": "2016-040A", "EPOCH": "2025-12-13T15:40:12.842688", "MEAN_MOTION": 15.19313234, "ECCENTRICITY": 0.00107719, "INCLINATION": 97.4763, "RA_OF_ASC_NODE": 44.8944, "ARG_OF_PERICENTER": 61.8213, "MEAN_ANOMALY": 298.4108, "EPHEMERIS_TYPE": 0, "CLASSIFICATION_TYPE": "U", "NORAD_CAT_ID": 41599, "ELEMENT_SET_NO": 999, "REV_AT_EPOCH": 52554, "BSTAR": 0.00045614098, "MEAN_MOTION_DOT": 9.582e-05, "MEAN_MOTION_DDOT": 0}, "tle": {"line1": "1 41599U 16040A   25347.65292642  .00009582  00000+0  45614-3 0  9992", "line2": "2 41599  97.4763  44.8944 0010771  61.8213 298.4108 15.19313234525541"}}, "geometry": {"type": "Point", "coordinates": [43.14046963411323, 17.748910956062268]}}, {"type": "Feature", "properties": {"norad_id": 41601, "name": "SKYSAT-C1", "group": "resource", "lat": 31.10895357467306, "lon": -150.51865259210916, "alt_km": 467.5264319779453, "timestamp": "2025-12-14T07:33:19.135293+00:00", "meta": {"OBJECT_NAME": "SKYSAT-C1", "OBJECT_ID": "2016-040C", "EPOCH": "2025-12-13T15:14:23.179200", "MEAN_MOTION": 15.32613169, "ECCENTRICITY": 0.00022761, "INCLINATION": 96.9828, "RA_OF_ASC_NODE": 24.5981, "ARG_OF_PERICENTER": 13.2546, "MEAN_ANOMALY": 346.8756, "EPHEMERIS_TYPE": 0, "CLASSIFICATION_TYPE": "U", "NORAD_CAT_ID": 41601, "ELEMENT_SET_NO": 999, "REV_AT_EPOCH": 52941, "BSTAR": 0.00035697669, "MEAN_MOTION_DOT": 0.00011175, "MEAN_MOTION_DDOT": 0}, "tle": {"line1": "1 41601U 16040C   25347.63499050  .00011175  00000+0  35698-3 0  9998", "line2": "2 41601  96.9828  24.5981 0002276  13.2546 346.8756 15.32613169529410"}}, "geometry": {"type": "Point", "coordinates": [-150.51865259210916, 31.10895357467306]}}, {"type": "Feature", "properties": {"norad_id": 41603, "name": "LAPAN-A3", "group": "resource", "lat": -72.30438351209261, "lon": 8.959066349750975, "alt_km": 473.59377640914136, "timestamp": "2025-12-14T07:33:19.135304+00:00", "meta": {"OBJECT_NAME": "LAPAN-A3", "OBJECT_ID": "2016-040E", "EPOCH": "2025-12-13T16:11:45.730176", "MEAN_MOTION": 15.31562287, "ECCENTRICITY": 0.00095159, "INCLINATION": 97.1431, "RA_OF_ASC_NODE": 345.1971, "ARG_OF_PERICENTER": 330.3251, "MEAN_ANOMALY": 29.745, "EPHEMERIS_TYPE": 0, "CLASSIFICATION_TYPE": "U", "NORAD_CAT_ID": 41603, "ELEMENT_SET_NO": 999, "REV_AT_EPOCH": 52640, "BSTAR": 0.00018994985, "MEAN_MOTION_DOT": 5.722e-05, "MEAN_MOTION_DDOT": 0}, "tle": {"line1": "1 41603U 16040E   25347.67483484  .00005722  00000+0  18995-3 0  9990", "line2": "2 41603  97.1431 345.1971 0009515 330.3251  29.7450 15.31562287526402"}}, "geometry": {"type": "Point", "coordinates": [8.959066349750975, -72.30438351209261]}}, {"type": "Feature", "properties": {"norad_id": 41604, "name": "BIROS", "group": "resource", "lat": 78.31992241071039, "lon": -17.074929963995526, "alt_km": 292.7744363023503, "timestamp": "2025-12-14T07:33:19.135315+00:00", "meta": {"OBJECT_NAME": "BIROS", "OBJECT_ID": "2016-040F", "EPOCH": "2025-12-13T14:36:18.084960", "MEAN_MOTION": 15.90136506, "ECCENTRICITY": 0.00035025, "INCLINATION": 97.0682, "RA_OF_ASC_NODE": 19.0764, "ARG_OF_PERICENTER": 146.2595, "MEAN_ANOMALY": 213.8902, "EPHEMERIS_TYPE": 0, "CLASSIFICATION_TYPE": "U", "NORAD_CAT_ID": 41604, "ELEMENT_SET_NO": 999, "REV_AT_EPOCH": 52886, "BSTAR": 0.00066760898, "MEAN_MOTION_DOT": 0.00199314, "MEAN_MOTION_DDOT": 1.6332253e-05}, "tle": {"line1": "1 41604U 16040F   25347.60854265  .00199314  16332-4  66761-3 0  9998", "line2": "2 41604  97.0682  19.0764 0003502 146.2595 213.8902 15.90136506528868"}}, "geometry": {"type": "Point", "coordinates": [-17.074929963995526, 78.31992241071039]}}, {"type": "Feature", "properties": {"norad_id": 41727, "name": "GAOFEN-3", "group": "resource", "lat": -78.50146677999429, "lon": 40.492714753248855, "alt_km": 759.3060541979321, "timestamp": "2025-12-14T07:33:19.135325+00:00", "meta": {"OBJECT_NAME": "GAOFEN-3", "OBJECT_ID": "2016-049A", "EPOCH": "2025-12-13T15:17:05.725248", "MEAN_MOTION": 14.42213695, "ECCENTRICITY": 0.0001401, "INCLINATION": 98.4044, "RA_OF_ASC_NODE": 353.2096, "ARG_OF_PERICENTER": 61.734, "MEAN_ANOMALY": 298.3991, "EPHEMERIS_TYPE": 0, "CLASSIFICATION_TYPE": "U", "NORAD_CAT_ID": 41727, "ELEMENT_SET_NO": 999, "REV_AT_EPOCH": 49190, "BSTAR": 3.9312823e-05, "MEAN_MOTION_DOT": 8.6e-07, "MEAN_MOTION_DDOT": 0}, "tle": {"line1": "1 41727U 16049A   25347.63687182  .00000086  00000+0  39313-4 0  9999", "line2": "2 41727  98.4044 353.2096 0001401  61.7340 298.3991 14.42213695491908"}}, "geometry": {"type": "Point", "coordinates": [40.492714753248855, -78.50146677999429]}}, {"type": "Feature", "properties": {"norad_id": 41771, "name": "SKYSAT-C4", "group": "resource", "lat": 41.083146923288886, "lon": -160.4793854413595, "alt_km": 435.0104970154216, "timestamp": "2025-12-14T07:33:19.135336+00:00", "meta": {"OBJECT_NAME": "SKYSAT-C4", "OBJECT_ID": "2016-058B", "EPOCH": "2025-12-13T15:23:07.950336", "MEAN_MOTION": 15.42283665, "ECCENTRICITY": 0.00016492, "INCLINATION": 96.9382, "RA_OF_ASC_NODE": 12.7849, "ARG_OF_PERICENTER": 134.7935, "MEAN_ANOMALY": 225.3447, "EPHEMERIS_TYPE": 0, "CLASSIFICATION_TYPE": "U", "NORAD_CAT_ID": 41771, "ELEMENT_SET_NO": 999, "REV_AT_EPOCH": 51681, "BSTAR": 0.00037986317, "MEAN_MOTION_DOT": 0.00016279, "MEAN_MOTION_DDOT": 0}, "tle": {"line1": "1 41771U 16058B   25347.64106424  .00016279  00000+0  37986-3 0  9998", "line2": "2 41771  96.9382  12.7849 0001649 134.7935 225.3447 15.42283665516812"}}, "geometry": {"type": "Point", "coordinates": [-160.4793854413595, 41.083146923288886]}}, {"type": "Feature", "properties": {"norad_id": 41772, "name": "SKYSAT-C5", "group": "resource", "lat": 8.205779414624896, "lon": 30.974798382443822, "alt_km": 464.21282138446895, "timestamp": "2025-12-14T07:33:19.135346+00:00", "meta": {"OBJECT_NAME": "SKYSAT-C5", "OBJECT_ID": "2016-058C", "EPOCH": "2025-12-13T15:52:19.056288", "MEAN_MOTION": 15.34792608, "ECCENTRICITY": 0.00011157, "INCLINATION": 97.0765, "RA_OF_ASC_NODE": 31.3742, "ARG_OF_PERICENTER": 206.2296, "MEAN_ANOMALY": 153.8892, "EPHEMERIS_TYPE": 0, "CLASSIFICATION_TYPE": "U", "NORAD_CAT_ID": 41772, "ELEMENT_SET_NO": 999, "REV_AT_EPOCH": 51530, "BSTAR": 0.00036012893, "MEAN_MOTION_DOT": 0.00012078, "MEAN_MOTION_DDOT": 0}, "tle": {"line1": "1 41772U 16058C   25347.66133167  .00012078  00000+0  36013-3 0  9998", "line2": "2 41772  97.0765  31.3742 0001115 206.2296 153.8892 15.34792608515307"}}, "geometry": {"type": "Point", "coordinates": [30.974798382443822, 8.205779414624896]}}, {"type": "Feature", "properties": {"norad_id": 41773, "name": "SKYSAT-C2", "group": "resource", "lat": 34.58338140523708, "lon": 7.889710592083172, "alt_km": 449.0583603004534, "timestamp": "2025-12-14T07:33:19.135357+00:00", "meta": {"OBJECT_NAME": "SKYSAT-C2", "OBJECT_ID": "2016-058D", "EPOCH": "2025-12-13T14:13:12.218592", "MEAN_MOTION": 15.37296949, "ECCENTRICITY": 0.00041576, "INCLINATION": 97.0368, "RA_OF_ASC_NODE": 12.0831, "ARG_OF_PERICENTER": 32.2799, "MEAN_ANOMALY": 327.87, "EPHEMERIS_TYPE": 0, "CLASSIFICATION_TYPE": "U", "NORAD_CAT_ID": 41773, "ELEMENT_SET_NO": 999, "REV_AT_EPOCH": 51649, "BSTAR": 0.0003795174, "MEAN_MOTION_DOT": 0.00013803, "MEAN_MOTION_DDOT": 0}, "tle": {"line1": "1 41773U 16058D   25347.59250253  .00013803  00000+0  37952-3 0  9997", "line2": "2 41773  97.0368  12.0831 0004157  32.2799 327.8700 15.37296949516498"}}, "geometry": {"type": "Point", "coordinates": [7.889710592083172, 34.58338140523708]}}]}